*******************************************************************************
Ephemeris / WWW_USER Mon Mar 24 07:44:47 2025 Pasadena, USA      / Horizons    
*******************************************************************************
Target body name: (2018 TC)                       {source: JPL#10}
Center body name: Earth (399)                     {source: DE441}
Center-site name: Mauna Kea
*******************************************************************************
Start time      : A.D. 2018-Nov-11 03:53:00.0000 UT      
Stop  time      : A.D. 2018-Nov-11 16:18:00.0000 UT      
Step-size       : 1 minutes
*******************************************************************************
Target pole/equ : undefined
Target radii    : undefined                                                    
Center geodetic : 204.5278, 19.8260847, 4.21024   {E-lon(deg),Lat(deg),Alt(km)}
Center cylindric: 204.5278, 6006.35451, 2151.0229 {E-lon(deg),Dxy(km),Dz(km)}
Center pole/equ : ITRF93                          {East-longitude positive}
Center radii    : 6378.137, 6378.137, 6356.752 km {Equator_a, b, pole_c}       
Target primary  : Sun
Vis. interferer : MOON (R_eq= 1737.400) km        {source: DE441}
Rel. light bend : Sun                             {source: DE441}
Rel. lght bnd GM: 1.3271E+11 km^3/s^2                                          
Small-body perts: Yes                             {source: SB441-N16}
Atmos refraction: NO (AIRLESS)
RA format       : HMS
Time format     : CAL 
Calendar mode   : Mixed Julian/Gregorian
RTS-only print  : NO       
EOP file        : eop.250321.p250617                                           
EOP coverage    : DATA-BASED 1962-JAN-20 TO 2025-MAR-21. PREDICTS-> 2025-JUN-16
Units conversion: 1 au= 149597870.700 km, c= 299792.458 km/s, 1 day= 86400.0 s 
Table cut-offs 1: Elevation (-90.0deg=NO ),Airmass (>38.000=NO), Daylight (YES)
Table cut-offs 2: Solar elongation (  0.0,180.0=NO ),Local Hour Angle( 0.0=NO )
Table cut-offs 3: RA/DEC angular rate (     0.0=NO )                           
*******************************************************************************
Initial IAU76/J2000 heliocentric ecliptic osculating elements (au, days, deg.):
  EPOCH=  2458399.5 ! 2018-Oct-08.00 (TDB)         Residual RMS= .20211        
   EC= .2253304451868516   QR= .9525668516843322   TP= 2458354.2554697809      
   OM= 188.9146441926015   W=  135.2493409557404   IN= 3.631837316097226       
  Equivalent ICRF heliocentric cartesian coordinates (au, au/d):
   X= 9.874490534016482E-01  Y= 2.414303737329446E-01  Z= 9.746991415829437E-02
  VX=-1.955204385424240E-03 VY= 1.722364762632024E-02 VZ= 6.197883797821973E-03
Asteroid physical parameters (km, seconds, rotational period in hours):        
   GM= n.a.                RAD= n.a.               ROTPER= n.a.                
   H= 26.6                 G= .150                 B-V= n.a.                   
                           ALBEDO= n.a.            STYP= n.a.                  
*******************************************************************************
 Date__(UT)__HR:MN     R.A._________(ICRF)_________DEC
******************************************************
$$SOE
 2018-Nov-11 12:05     02 20 52.900825 -03 24 29.94847
 2018-Nov-11 12:06     02 20 52.891952 -03 24 29.56472
 2018-Nov-11 12:07     02 20 52.883125 -03 24 29.18092
 2018-Nov-11 12:08     02 20 52.874344 -03 24 28.79706
 2018-Nov-11 12:09     02 20 52.865611 -03 24 28.41315
 2018-Nov-11 12:10     02 20 52.856924 -03 24 28.02919
 2018-Nov-11 12:11     02 20 52.848284 -03 24 27.64518
 2018-Nov-11 12:12     02 20 52.839692 -03 24 27.26112
 2018-Nov-11 12:13     02 20 52.831147 -03 24 26.87700
 2018-Nov-11 12:14     02 20 52.822651 -03 24 26.49284
 2018-Nov-11 12:15     02 20 52.814202 -03 24 26.10862
 2018-Nov-11 12:16     02 20 52.805802 -03 24 25.72435
 2018-Nov-11 12:17     02 20 52.797450 -03 24 25.34004
 2018-Nov-11 12:18     02 20 52.789146 -03 24 24.95567
 2018-Nov-11 12:19     02 20 52.780892 -03 24 24.57125
 2018-Nov-11 12:20     02 20 52.772687 -03 24 24.18678
 2018-Nov-11 12:21     02 20 52.764531 -03 24 23.80226
 2018-Nov-11 12:22     02 20 52.756424 -03 24 23.41769
 2018-Nov-11 12:23     02 20 52.748368 -03 24 23.03308
 2018-Nov-11 12:24     02 20 52.740361 -03 24 22.64841
 2018-Nov-11 12:25     02 20 52.732404 -03 24 22.26369
 2018-Nov-11 12:26     02 20 52.724498 -03 24 21.87893
 2018-Nov-11 12:27     02 20 52.716643 -03 24 21.49412
 2018-Nov-11 12:28     02 20 52.708838 -03 24 21.10925
 2018-Nov-11 12:29     02 20 52.701084 -03 24 20.72434
 2018-Nov-11 12:30     02 20 52.693381 -03 24 20.33938
 2018-Nov-11 12:31     02 20 52.685730 -03 24 19.95438
 2018-Nov-11 12:32     02 20 52.678130 -03 24 19.56932
 2018-Nov-11 12:33     02 20 52.670582 -03 24 19.18422
 2018-Nov-11 12:34     02 20 52.663086 -03 24 18.79907
 2018-Nov-11 12:35     02 20 52.655642 -03 24 18.41388
 2018-Nov-11 12:36     02 20 52.648251 -03 24 18.02863
 2018-Nov-11 12:37     02 20 52.640912 -03 24 17.64334
 2018-Nov-11 12:38     02 20 52.633626 -03 24 17.25801
 2018-Nov-11 12:39     02 20 52.626392 -03 24 16.87263
 2018-Nov-11 12:40     02 20 52.619212 -03 24 16.48720
 2018-Nov-11 12:41     02 20 52.612086 -03 24 16.10172
 2018-Nov-11 12:42     02 20 52.605012 -03 24 15.71620
 2018-Nov-11 12:43     02 20 52.597993 -03 24 15.33063
 2018-Nov-11 12:44     02 20 52.591027 -03 24 14.94502
 2018-Nov-11 12:45     02 20 52.584116 -03 24 14.55937
 2018-Nov-11 12:46     02 20 52.577258 -03 24 14.17366
 2018-Nov-11 12:47     02 20 52.570456 -03 24 13.78792
 2018-Nov-11 12:48     02 20 52.563707 -03 24 13.40213
 2018-Nov-11 12:49     02 20 52.557014 -03 24 13.01629
 2018-Nov-11 12:50     02 20 52.550376 -03 24 12.63041
 2018-Nov-11 12:51     02 20 52.543793 -03 24 12.24449
 2018-Nov-11 12:52     02 20 52.537265 -03 24 11.85852
 2018-Nov-11 12:53     02 20 52.530793 -03 24 11.47251
 2018-Nov-11 12:54     02 20 52.524376 -03 24 11.08646
 2018-Nov-11 12:55     02 20 52.518015 -03 24 10.70036
 2018-Nov-11 12:56     02 20 52.511711 -03 24 10.31422
 2018-Nov-11 12:57     02 20 52.505463 -03 24 09.92804
 2018-Nov-11 12:58     02 20 52.499271 -03 24 09.54181
 2018-Nov-11 12:59     02 20 52.493135 -03 24 09.15555
 2018-Nov-11 13:00     02 20 52.487057 -03 24 08.76924
 2018-Nov-11 13:01     02 20 52.481035 -03 24 08.38289
 2018-Nov-11 13:02     02 20 52.475071 -03 24 07.99650
 2018-Nov-11 13:03     02 20 52.469163 -03 24 07.61006
 2018-Nov-11 13:04     02 20 52.463314 -03 24 07.22359
 2018-Nov-11 13:05     02 20 52.457521 -03 24 06.83707
 2018-Nov-11 13:06     02 20 52.451787 -03 24 06.45051
 2018-Nov-11 13:07     02 20 52.446110 -03 24 06.06392
 2018-Nov-11 13:08     02 20 52.440492 -03 24 05.67728
 2018-Nov-11 13:09     02 20 52.434932 -03 24 05.29060
 2018-Nov-11 13:10     02 20 52.429430 -03 24 04.90389
 2018-Nov-11 13:11     02 20 52.423987 -03 24 04.51713
 2018-Nov-11 13:12     02 20 52.418602 -03 24 04.13033
 2018-Nov-11 13:13     02 20 52.413277 -03 24 03.74350
 2018-Nov-11 13:14     02 20 52.408010 -03 24 03.35662
 2018-Nov-11 13:15     02 20 52.402803 -03 24 02.96971
 2018-Nov-11 13:16     02 20 52.397655 -03 24 02.58276
 2018-Nov-11 13:17     02 20 52.392566 -03 24 02.19577
 2018-Nov-11 13:18     02 20 52.387537 -03 24 01.80874
 2018-Nov-11 13:19     02 20 52.382568 -03 24 01.42167
 2018-Nov-11 13:20     02 20 52.377659 -03 24 01.03457
 2018-Nov-11 13:21     02 20 52.372810 -03 24 00.64743
 2018-Nov-11 13:22     02 20 52.368022 -03 24 00.26025
 2018-Nov-11 13:23     02 20 52.363293 -03 23 59.87304
 2018-Nov-11 13:24     02 20 52.358625 -03 23 59.48579
 2018-Nov-11 13:25     02 20 52.354018 -03 23 59.09850
 2018-Nov-11 13:26     02 20 52.349472 -03 23 58.71117
 2018-Nov-11 13:27     02 20 52.344986 -03 23 58.32381
 2018-Nov-11 13:28     02 20 52.340562 -03 23 57.93642
 2018-Nov-11 13:29     02 20 52.336199 -03 23 57.54899
 2018-Nov-11 13:30     02 20 52.331897 -03 23 57.16152
 2018-Nov-11 13:31     02 20 52.327657 -03 23 56.77402
 2018-Nov-11 13:32     02 20 52.323479 -03 23 56.38648
 2018-Nov-11 13:33     02 20 52.319362 -03 23 55.99891
 2018-Nov-11 13:34     02 20 52.315307 -03 23 55.61130
 2018-Nov-11 13:35     02 20 52.311315 -03 23 55.22366
 2018-Nov-11 13:36     02 20 52.307384 -03 23 54.83599
 2018-Nov-11 13:37     02 20 52.303516 -03 23 54.44828
 2018-Nov-11 13:38     02 20 52.299710 -03 23 54.06054
 2018-Nov-11 13:39     02 20 52.295967 -03 23 53.67276
 2018-Nov-11 13:40     02 20 52.292286 -03 23 53.28496
 2018-Nov-11 13:41     02 20 52.288668 -03 23 52.89712
 2018-Nov-11 13:42     02 20 52.285113 -03 23 52.50924
 2018-Nov-11 13:43     02 20 52.281621 -03 23 52.12134
 2018-Nov-11 13:44     02 20 52.278193 -03 23 51.73340
 2018-Nov-11 13:45     02 20 52.274827 -03 23 51.34543
 2018-Nov-11 13:46     02 20 52.271525 -03 23 50.95743
 2018-Nov-11 13:47     02 20 52.268287 -03 23 50.56940
 2018-Nov-11 13:48     02 20 52.265112 -03 23 50.18134
 2018-Nov-11 13:49     02 20 52.262001 -03 23 49.79325
 2018-Nov-11 13:50     02 20 52.258954 -03 23 49.40512
 2018-Nov-11 13:51     02 20 52.255971 -03 23 49.01697
 2018-Nov-11 13:52     02 20 52.253052 -03 23 48.62878
 2018-Nov-11 13:53     02 20 52.250197 -03 23 48.24057
 2018-Nov-11 13:54     02 20 52.247406 -03 23 47.85232
 2018-Nov-11 13:55     02 20 52.244680 -03 23 47.46405
 2018-Nov-11 13:56     02 20 52.242019 -03 23 47.07575
 2018-Nov-11 13:57     02 20 52.239422 -03 23 46.68742
 2018-Nov-11 13:58     02 20 52.236890 -03 23 46.29906
 2018-Nov-11 13:59     02 20 52.234422 -03 23 45.91067
 2018-Nov-11 14:00     02 20 52.232020 -03 23 45.52225
 2018-Nov-11 14:01     02 20 52.229682 -03 23 45.13380
 2018-Nov-11 14:02     02 20 52.227410 -03 23 44.74533
 2018-Nov-11 14:03     02 20 52.225203 -03 23 44.35683
 2018-Nov-11 14:04     02 20 52.223061 -03 23 43.96830
 2018-Nov-11 14:05     02 20 52.220985 -03 23 43.57975
 2018-Nov-11 14:06     02 20 52.218974 -03 23 43.19117
 2018-Nov-11 14:07     02 20 52.217029 -03 23 42.80256
